GSAT0233 (GALILEO 33)   
1 67160U 25302A   26138.89929920  .00000019  00000+0  00000+0 0  9998
2 67160  54.3182 102.9642 0001581 248.0002 293.8232  1.70474069  2627
GSAT0234 (GALILEO 34)   
1 67162U 25302C   26140.36295444  .00000019  00000+0  00000+0 0  9992
2 67162  54.3207 102.9217 0003623 302.1591 238.0508  1.70474044  2708
